NORAD_CAT_ID,OBJECT_NAME,OBJECT_TYPE,EPOCH,MEAN_MOTION,ECCENTRICITY,INCLINATION,RA_OF_ASC_NODE,ARG_OF_PERICENTER,MEAN_ANOMALY,BSTAR,MEAN_MOTION_DOT,MEAN_MOTION_DDOT,TLE_LINE0,TLE_LINE1,TLE_LINE2,SEMIMAJOR_AXIS,PERIOD,APOGEE,PERIGEE,DECAYED
50849.0,STARLINK-3311,PAYLOAD,2024-07-20 15:31:33,15.08843596,0.0001121,53.2157,339.349,94.9883,265.1237,0.00010697,1.415e-05,0.0,0 STARLINK-3311,1 50849U 22001AY  24202.64692122  .00001415  00000-0  10697-3 0  9990,2 50849  53.2157 339.3490 0001121  94.9883 265.1237 15.08843596140132,6917.869,95.437,540.51,538.959,0.0
50849.0,STARLINK-3311,PAYLOAD,2024-07-21 12:11:34,15.08847362,0.000131,53.2168,335.4821,97.8526,262.2614,-3.2717e-05,-8.09e-06,0.0,0 STARLINK-3311,1 50849U 22001AY  24203.50803953 -.00000809  00000-0 -32717-4 0  9998,2 50849  53.2168 335.4821 0001310  97.8526 262.2614 15.08847362141464,6917.858,95.437,540.629,538.817,0.0
50849.0,STARLINK-3311,PAYLOAD,2024-07-21 13:46:57,15.08850093,0.0001452,53.2173,335.1849,94.9929,265.1229,1.4491e-05,-5.7e-07,0.0,0 STARLINK-3311,1 50849U 22001AY  24203.57427819 -.00000057  00000-0  14491-4 0  9991,2 50849  53.2173 335.1849 0001452  94.9929 265.1229 15.08850093140276,6917.85,95.437,540.719,538.71,0.0
50849.0,STARLINK-3311,PAYLOAD,2024-07-21 15:22:20,15.08851145,0.0001384,53.218,334.8876,102.1356,257.9791,3.4121e-05,2.55e-06,0.0,0 STARLINK-3311,1 50849U 22001AY  24203.64051720  .00000255  00000-0  34121-4 0  9994,2 50849  53.2180 334.8876 0001384 102.1356 257.9791 15.08851145140283,6917.846,95.437,540.669,538.754,0.0
50849.0,STARLINK-3311,PAYLOAD,2024-07-22 08:51:36,15.08835813,0.0001551,53.2182,331.6205,84.9688,275.1481,0.00010057,1.313e-05,0.0,0 STARLINK-3311,1 50849U 22001AY  24204.36916698  .00001313  00000-0  10057-3 0  9995,2 50849  53.2182 331.6205 0001551  84.9688 275.1481 15.08835813141594,6917.893,95.438,540.831,538.685,0.0
50849.0,STARLINK-3311,PAYLOAD,2024-07-23 15:03:55,15.08843263,0.0001304,53.2153,325.9669,82.5556,277.5584,0.00018427,2.646e-05,0.0,0 STARLINK-3311,1 50849U 22001AY  24205.62772554  .00002646  00000-0  18427-3 0  9995,2 50849  53.2153 325.9669 0001304  82.5556 277.5584 15.08843263140582,6917.87,95.437,540.638,538.833,0.0
50849.0,STARLINK-3311,PAYLOAD,2024-07-24 08:33:10,15.08831374,0.0001666,53.2173,322.6982,86.541,273.5773,-3.7834e-05,-8.9e-06,0.0,0 STARLINK-3311,1 50849U 22001AY  24206.35637331 -.00000890  00000-0 -37834-4 0  9994,2 50849  53.2173 322.6982 0001666  86.5410 273.5773 15.08831374141891,6917.907,95.438,540.924,538.619,0.0
50849.0,STARLINK-3311,PAYLOAD,2024-07-24 16:30:06,15.08836987,0.0001746,53.2174,321.2115,85.075,275.0441,5.1642e-05,5.34e-06,0.0,0 STARLINK-3311,1 50849U 22001AY  24206.68757178  .00000534  00000-0  51642-4 0  9998,2 50849  53.2174 321.2115 0001746  85.0750 275.0441 15.08836987140742,6917.89,95.438,540.962,538.547,0.0
50849.0,STARLINK-3311,PAYLOAD,2024-07-25 08:23:53,15.08891242,0.0001515,53.2193,318.2388,105.5129,254.603,-0.00083526,-0.00013575,0.0,0 STARLINK-3311,1 50849U 22001AY  24207.34993029 -.00013575  00000-0 -83526-3 0  9995,2 50849  53.2193 318.2388 0001515 105.5129 254.6030 15.08891242142040,6917.724,95.434,540.637,538.541,0.0
50849.0,STARLINK-3311,PAYLOAD,2024-07-25 17:56:15,15.08846959,0.0001773,53.2175,316.4501,92.0449,268.0746,0.0002527,3.737e-05,0.0,0 STARLINK-3311,1 50849U 22001AY  24207.74740285  .00003737  00000-0  25270-3 0  9992,2 50849  53.2175 316.4501 0001773  92.0449 268.0746 15.08846959142103,6917.859,95.437,540.951,538.498,0.0
50849.0,STARLINK-3311,PAYLOAD,2024-07-26 00:17:48,15.0884001,0.0002476,53.2177,315.2597,80.0387,280.0884,0.00018134,2.599e-05,0.0,0 STARLINK-3311,1 50849U 22001AY  24208.01237116  .00002599  00000-0  18134-3 0  9993,2 50849  53.2177 315.2597 0002476  80.0387 280.0884 15.08840010142149,6917.88,95.438,541.458,538.032,0.0
50849.0,STARLINK-3311,PAYLOAD,2024-07-26 16:11:39,15.08845062,0.0001698,53.2179,312.2861,80.9287,279.1897,9.7009e-05,1.256e-05,0.0,0 STARLINK-3311,1 50849U 22001AY  24208.67476648  .00001256  00000-0  97009-4 0  9998,2 50849  53.2179 312.2861 0001698  80.9287 279.1897 15.08845062141048,6917.865,95.437,540.905,538.555,0.0
50849.0,STARLINK-3311,PAYLOAD,2024-07-27 14:27:06,15.08782221,0.000245,53.2147,308.1233,83.1885,276.9386,0.00069148,0.00010717,0.0,0 STARLINK-3311,1 50849U 22001AY  24209.60215541  .00010717  00000-0  69148-3 0  9999,2 50849  53.2147 308.1233 0002450  83.1885 276.9386 15.08782221141186,6918.057,95.441,541.617,538.227,0.0
50849.0,STARLINK-3311,PAYLOAD,2024-07-27 23:59:22,15.08842826,4.83e-05,53.2194,306.3379,182.5446,177.5544,2.0062e-05,3.2e-07,0.0,0 STARLINK-3311,1 50849U 22001AY  24209.99956310  .00000032  00000-0  20062-4 0  9999,2 50849  53.2194 306.3379 0000483 182.5446 177.5544 15.08842826142440,6917.872,95.437,540.071,539.403,0.0
50849.0,STARLINK-3311,PAYLOAD,2024-07-28 12:42:26,15.08874392,8.13e-05,53.2171,303.9614,73.1013,287.0068,-0.00036721,-6.133e-05,0.0,0 STARLINK-3311,1 50849U 22001AY  24210.52947004 -.00006133  00000-0 -36721-3 0  9998,2 50849  53.2171 303.9614 0000813  73.1013 287.0068 15.08874392142522,6917.775,95.435,540.203,539.078,0.0
50849.0,STARLINK-3311,PAYLOAD,2024-07-28 15:53:13,15.08844989,0.0001404,53.2149,303.3657,97.539,262.5762,0.00025969,3.848e-05,0.0,0 STARLINK-3311,1 50849U 22001AY  24210.66196090  .00003848  00000-0  25969-3 0  9994,2 50849  53.2149 303.3657 0001404  97.5390 262.5762 15.08844989142543,6917.865,95.437,540.701,538.759,0.0
50849.0,STARLINK-3311,PAYLOAD,2024-07-28 23:50:10,15.08837695,0.0002292,53.2138,301.8754,90.3672,269.7582,0.00014271,1.984e-05,0.0,0 STARLINK-3311,1 50849U 22001AY  24210.99317375  .00001984  00000-0  14271-3 0  9994,2 50849  53.2138 301.8754 0002292  90.3672 269.7582 15.08837695142592,6917.887,95.438,541.338,538.167,0.0
50849.0,STARLINK-3311,PAYLOAD,2024-07-29 12:33:15,15.08841684,0.0001569,53.2158,299.4984,96.3519,263.7652,0.00010345,1.359e-05,0.0,0 STARLINK-3311,1 50849U 22001AY  24211.52309061  .00001359  00000-0  10345-3 0  9991,2 50849  53.2158 299.4984 0001569  96.3519 263.7652 15.08841684141474,6917.875,95.437,540.826,538.655,0.0
50849.0,STARLINK-3311,PAYLOAD,2024-07-29 14:08:38,15.0884044,0.0001211,53.2168,299.2014,97.1428,262.9702,8.4299e-05,1.054e-05,0.0,0 STARLINK-3311,1 50849U 22001AY  24211.58933075  .00001054  00000-0  84299-4 0  9997,2 50849  53.2168 299.2014 0001211  97.1428 262.9702 15.08840440141486,6917.879,95.438,540.582,538.906,0.0
50849.0,STARLINK-3311,PAYLOAD,2024-07-30 04:27:06,15.0883922,0.0001349,53.2156,296.5258,94.3104,265.8042,-1.5895e-05,-5.41e-06,0.0,0 STARLINK-3311,1 50849U 22001AY  24212.18549517 -.00000541  00000-0 -15895-4 0  9996,2 50849  53.2156 296.5258 0001349  94.3104 265.8042 15.08839220142771,6917.883,95.438,540.681,538.815,0.0
50849.0,STARLINK-3311,PAYLOAD,2024-07-30 12:24:01,15.08851362,0.0001219,53.2166,295.0416,81.9796,278.1335,6.3891e-06,-1.86e-06,0.0,0 STARLINK-3311,1 50849U 22001AY  24212.51668756 -.00000186  00000-0  63891-5 0  9994,2 50849  53.2166 295.0416 0001219  81.9796 278.1335 15.08851362142826,6917.846,95.437,540.554,538.867,0.0
50849.0,STARLINK-3311,PAYLOAD,2024-07-30 13:59:24,15.08852928,0.0001236,53.2167,294.7444,82.6792,277.4341,3.4436e-05,2.6e-06,0.0,0 STARLINK-3311,1 50849U 22001AY  24212.58292580  .00000260  00000-0  34436-4 0  9993,2 50849  53.2167 294.7444 0001236  82.6792 277.4341 15.08852928141633,6917.841,95.437,540.561,538.851,0.0
50849.0,STARLINK-3311,PAYLOAD,2024-07-30 17:10:11,15.08838152,0.0001362,53.2159,294.1493,91.0188,269.096,0.00061827,9.565e-05,0.0,0 STARLINK-3311,1 50849U 22001AY  24212.71541472  .00009565  00000-0  61827-3 0  9995,2 50849  53.2159 294.1493 0001362  91.0188 269.0960 15.08838152142857,6917.886,95.438,540.693,538.809,0.0
50849.0,STARLINK-3311,PAYLOAD,2024-07-31 13:50:13,15.08843448,0.0001248,53.2161,290.2834,82.913,277.2004,0.00072001,0.00011191,0.0,0 STARLINK-3311,1 50849U 22001AY  24213.57653939  .00011191  00000-0  72001-3 0  9996,2 50849  53.2161 290.2834 0001248  82.9130 277.2004 15.08843448141780,6917.87,95.437,540.598,538.871,0.0
50849.0,STARLINK-3311,PAYLOAD,2024-07-31 17:00:59,15.08848486,0.0001236,53.216,289.6886,83.2865,276.8268,0.00090781,0.00014193,0.0,0 STARLINK-3311,1 50849U 22001AY  24213.70901889  .00014193  00000-0  90781-3 0  9991,2 50849  53.2160 289.6886 0001236  83.2865 276.8268 15.08848486143005,6917.854,95.437,540.574,538.864,0.0
50849.0,STARLINK-3311,PAYLOAD,2024-08-01 12:05:36,15.08870505,0.0001202,53.2157,286.1209,81.9917,278.1211,0.001415,0.00022322,0.0,0 STARLINK-3311,1 50849U 22001AY  24214.50389251  .00022322  00000-0  14150-2 0  9991,2 50849  53.2157 286.1209 0001202  81.9917 278.1211 15.08870505141927,6917.787,95.436,540.484,538.821,0.0
50849.0,STARLINK-3311,PAYLOAD,2024-08-01 21:37:54,15.08877152,0.0001051,53.2154,284.3365,69.4537,290.6567,0.0010476,0.00016441,0.0,0 STARLINK-3311,1 50849U 22001AY  24214.90132673  .00016441  00000-0  10476-2 0  9991,2 50849  53.2154 284.3365 0001051  69.4537 290.6567 15.08877152143186,6917.767,95.435,540.359,538.905,0.0
50849.0,STARLINK-3311,PAYLOAD,2024-08-02 03:59:27,15.08855108,0.0002961,53.2152,283.1471,79.8147,280.3179,0.00087236,0.00013629,0.0,0 STARLINK-3311,1 50849U 22001AY  24215.16629338  .00013629  00000-0  87236-3 0  9993,2 50849  53.2152 283.1471 0002961  79.8147 280.3179 15.08855108143229,6917.834,95.437,541.748,537.651,0.0
50849.0,STARLINK-3311,PAYLOAD,2024-08-02 13:31:46,15.08842269,0.000153,53.2152,281.363,75.4852,284.6309,0.00033296,5.015e-05,0.0,0 STARLINK-3311,1 50849U 22001AY  24215.56373343  .00005015  00000-0  33296-3 0  9996,2 50849  53.2152 281.3630 0001530  75.4852 284.6309 15.08842269143284,6917.873,95.437,540.797,538.68,0.0
50849.0,STARLINK-3311,PAYLOAD,2024-08-02 21:28:42,15.08837133,0.0001595,53.215,279.8764,77.9833,282.1338,0.00058882,9.095e-05,0.0,0 STARLINK-3311,1 50849U 22001AY  24215.89493723  .00009095  00000-0  58882-3 0  9997,2 50849  53.2150 279.8764 0001595  77.9833 282.1338 15.08837133142131,6917.889,95.438,540.858,538.651,0.0
